[
    {
        "Altitude(m)": 622200.1488664473,
        "Argument of Periapsis(deg)": 0.0,
        "Eccentricity": 0.0,
        "Inclination(deg)": 60.0,
        "Latitude(deg)": -52.162653224240806,
        "Longitude(deg)": -62.63919313310699,
        "Mean Anomaly(deg)": -65.45449999999998,
        "RAAN(deg)": 85.00000000000001,
        "Satellite Name": "Test1 392",
        "Satellite Number": 392,
        "Semi-Major Axis(m)": 6980739.136638005,
        "Time(s)": 0
    },
    {
        "Altitude(m)": 622058.3165363931,
        "Argument of Periapsis(deg)": 0.00010418945913296404,
        "Eccentricity": 0.0,
        "Inclination(deg)": 60.0,
        "Latitude(deg)": -51.79940230739886,
        "Longitude(deg)": -61.8711340097326,
        "Mean Anomaly(deg)": -64.83439385453815,
        "RAAN(deg)": 84.99957995086027,
        "Satellite Name": "Test1 392",
        "Satellite Number": 392,
        "Semi-Major Axis(m)": 6980739.136638005,
        "Time(s)": 10
    },
    {
        "Altitude(m)": 621913.750909283,
        "Argument of Periapsis(deg)": 0.0002083789182659281,
        "Eccentricity": 0.0,
        "Inclination(deg)": 60.0,
        "Latitude(deg)": -51.430639803725064,
        "Longitude(deg)": -61.11605374568702,
        "Mean Anomaly(deg)": -64.21428770907634,
        "RAAN(deg)": 84.99915990172053,
        "Satellite Name": "Test1 392",
        "Satellite Number": 392,
        "Semi-Major Axis(m)": 6980739.136638005,
        "Time(s)": 20
    },
    {
        "Altitude(m)": 621766.5084244962,
        "Argument of Periapsis(deg)": 0.00031256837739889213,
        "Eccentricity": 0.0,
        "Inclination(deg)": 60.0,
        "Latitude(deg)": -51.0565228348558,
        "Longitude(deg)": -60.37376264101499,
        "Mean Anomaly(deg)": -63.59418156361446,
        "RAAN(deg)": 84.99873985258077,
        "Satellite Name": "Test1 392",
        "Satellite Number": 392,
        "Semi-Major Axis(m)": 6980739.136638005,
        "Time(s)": 30
    },
    {
        "Altitude(m)": 621616.6465378169,
        "Argument of Periapsis(deg)": 0.0004167578365318562,
        "Eccentricity": 0.0,
        "Inclination(deg)": 60.0,
        "Latitude(deg)": -50.67720483185018,
        "Longitude(deg)": -59.6440632302541,
        "Mean Anomaly(deg)": -62.974075418152665,
        "RAAN(deg)": 84.99831980344103,
        "Satellite Name": "Test1 392",
        "Satellite Number": 392,
        "Semi-Major Axis(m)": 6980739.136638005,
        "Time(s)": 40
    },
    {
        "Altitude(m)": 621464.223696838,
        "Argument of Periapsis(deg)": 0.0005209472956648203,
        "Eccentricity": 0.0,
        "Inclination(deg)": 60.0,
        "Latitude(deg)": -50.29283550818677,
        "Longitude(deg)": -58.92675233228772,
        "Mean Anomaly(deg)": -62.35396927269083,
        "RAAN(deg)": 84.99789975430129,
        "Satellite Name": "Test1 392",
        "Satellite Number": 392,
        "Semi-Major Axis(m)": 6980739.136638005,
        "Time(s)": 50
    },
    {
        "Altitude(m)": 621309.2993159096,
        "Argument of Periapsis(deg)": 0.0006251367547977843,
        "Eccentricity": 0.0,
        "Inclination(deg)": 60.0,
        "Latitude(deg)": -49.90356084731461,
        "Longitude(deg)": -58.22162151797469,
        "Mean Anomaly(deg)": -61.733863127228986,
        "RAAN(deg)": 84.99747970516155,
        "Satellite Name": "Test1 392",
        "Satellite Number": 392,
        "Semi-Major Axis(m)": 6980739.136638005,
        "Time(s)": 60
    },
    {
        "Altitude(m)": 621151.9337506643,
        "Argument of Periapsis(deg)": 0.0007293262139307483,
        "Eccentricity": 0.0,
        "Inclination(deg)": 60.0,
        "Latitude(deg)": -49.50952310335506,
        "Longitude(deg)": -57.528457509834865,
        "Mean Anomaly(deg)": -61.11375698176715,
        "RAAN(deg)": 84.9970596560218,
        "Satellite Name": "Test1 392",
        "Satellite Number": 392,
        "Semi-Major Axis(m)": 6980739.136638005,
        "Time(s)": 70
    },
    {
        "Altitude(m)": 620992.1882720985,
        "Argument of Periapsis(deg)": 0.0008335156730637124,
        "Eccentricity": 0.0,
        "Inclination(deg)": 60.0,
        "Latitude(deg)": -49.11086081362437,
        "Longitude(deg)": -56.847044028490956,
        "Mean Anomaly(deg)": -60.493650836305356,
        "RAAN(deg)": 84.99663960688207,
        "Satellite Name": "Test1 392",
        "Satellite Number": 392,
        "Semi-Major Axis(m)": 6980739.136638005,
        "Time(s)": 80
    },
    {
        "Altitude(m)": 620830.1250402669,
        "Argument of Periapsis(deg)": 0.0009377051321966765,
        "Eccentricity": 0.0,
        "Inclination(deg)": 60.0,
        "Latitude(deg)": -48.70770882171383,
        "Longitude(deg)": -56.177162062269566,
        "Mean Anomaly(deg)": -59.873544690843524,
        "RAAN(deg)": 84.99621955774232,
        "Satellite Name": "Test1 392",
        "Satellite Number": 392,
        "Semi-Major Axis(m)": 6980739.136638005,
        "Time(s)": 90
    },
    {
        "Altitude(m)": 620665.8070775579,
        "Argument of Periapsis(deg)": 0.0010418945913296407,
        "Eccentricity": 0.0,
        "Inclination(deg)": 60.0,
        "Latitude(deg)": -48.3001983099458,
        "Longitude(deg)": -55.518590075255766,
        "Mean Anomaly(deg)": -59.25343854538167,
        "RAAN(deg)": 84.99579950860257,
        "Satellite Name": "Test1 392",
        "Satellite Number": 392,
        "Semi-Major Axis(m)": 6980739.136638005,
        "Time(s)": 100
    },
    {
        "Altitude(m)": 620499.2982415782,
        "Argument of Periapsis(deg)": 0.0011460840504626045,
        "Eccentricity": 0.0,
        "Inclination(deg)": 60.0,
        "Latitude(deg)": -47.888456840099444,
        "Longitude(deg)": -54.87110566929305,
        "Mean Anomaly(deg)": -58.63333239991988,
        "RAAN(deg)": 84.99537945946282,
        "Satellite Name": "Test1 392",
        "Satellite Number": 392,
        "Semi-Major Axis(m)": 6980739.136638005,
        "Time(s)": 110
    },
    {
        "Altitude(m)": 620330.6631976462,
        "Argument of Periapsis(deg)": 0.0012502735095955685,
        "Eccentricity": 0.0,
        "Inclination(deg)": 60.0,
        "Latitude(deg)": -47.472608401372476,
        "Longitude(deg)": -54.23448567693264,
        "Mean Anomaly(deg)": -58.01322625445799,
        "RAAN(deg)": 84.99495941032309,
        "Satellite Name": "Test1 392",
        "Satellite Number": 392,
        "Semi-Major Axis(m)": 6980739.136638005,
        "Time(s)": 120
    },
    {
        "Altitude(m)": 620159.9673909515,
        "Argument of Periapsis(deg)": 0.0013544629687285324,
        "Eccentricity": 0.0,
        "Inclination(deg)": 60.0,
        "Latitude(deg)": -47.0527734646259,
        "Longitude(deg)": -53.60850620105684,
        "Mean Anomaly(deg)": -57.3931201089962,
        "RAAN(deg)": 84.99453936118334,
        "Satellite Name": "Test1 392",
        "Satellite Number": 392,
        "Semi-Major Axis(m)": 6980739.136638005,
        "Time(s)": 130
    },
    {
        "Altitude(m)": 619987.2770182946,
        "Argument of Periapsis(deg)": 0.0014586524278614966,
        "Eccentricity": 0.0,
        "Inclination(deg)": 60.0,
        "Latitude(deg)": -46.62906904202962,
        "Longitude(deg)": -52.99294411694616,
        "Mean Anomaly(deg)": -56.77301396353436,
        "RAAN(deg)": 84.99411931204361,
        "Satellite Name": "Test1 392",
        "Satellite Number": 392,
        "Semi-Major Axis(m)": 6980739.136638005,
        "Time(s)": 140
    },
    {
        "Altitude(m)": 619812.6589995483,
        "Argument of Periapsis(deg)": 0.0015628418869944607,
        "Eccentricity": 0.0,
        "Inclination(deg)": 60.0,
        "Latitude(deg)": -46.20160875129702,
        "Longitude(deg)": -52.38757701394926,
        "Mean Anomaly(deg)": -56.15290781807252,
        "RAAN(deg)": 84.99369926290386,
        "Satellite Name": "Test1 392",
        "Satellite Number": 392,
        "Semi-Major Axis(m)": 6980739.136638005,
        "Time(s)": 150
    },
    {
        "Altitude(m)": 619636.1809487212,
        "Argument of Periapsis(deg)": 0.0016670313461274247,
        "Eccentricity": 0.0,
        "Inclination(deg)": 60.0,
        "Latitude(deg)": -45.77050288376668,
        "Longitude(deg)": -51.79218309251806,
        "Mean Anomaly(deg)": -55.53280167261069,
        "RAAN(deg)": 84.99327921376413,
        "Satellite Name": "Test1 392",
        "Satellite Number": 392,
        "Semi-Major Axis(m)": 6980739.136638005,
        "Time(s)": 160
    },
    {
        "Altitude(m)": 619457.9111447512,
        "Argument of Periapsis(deg)": 0.0017712208052603888,
        "Eccentricity": 0.0,
        "Inclination(deg)": 60.0,
        "Latitude(deg)": -45.33585847565625,
        "Longitude(deg)": -51.20654253233086,
        "Mean Anomaly(deg)": -54.91269552714889,
        "RAAN(deg)": 84.99285916462438,
        "Satellite Name": "Test1 392",
        "Satellite Number": 392,
        "Semi-Major Axis(m)": 6980739.136638005,
        "Time(s)": 170
    },
    {
        "Altitude(m)": 619277.9185019252,
        "Argument of Periapsis(deg)": 0.001875410264393353,
        "Eccentricity": 0.0,
        "Inclination(deg)": 60.0,
        "Latitude(deg)": -44.89777938187007,
        "Longitude(deg)": -50.630437308530325,
        "Mean Anomaly(deg)": -54.29258938168706,
        "RAAN(deg)": 84.99243911548464,
        "Satellite Name": "Test1 392",
        "Satellite Number": 392,
        "Semi-Major Axis(m)": 6980739.136638005,
        "Time(s)": 180
    },
    {
        "Altitude(m)": 619096.2725400635,
        "Argument of Periapsis(deg)": 0.0019795997235263173,
        "Eccentricity": 0.0,
        "Inclination(deg)": 60.0,
        "Latitude(deg)": -44.45636635180635,
        "Longitude(deg)": -50.06365097165118,
        "Mean Anomaly(deg)": -53.67248323622526,
        "RAAN(deg)": 84.9920190663449,
        "Satellite Name": "Test1 392",
        "Satellite Number": 392,
        "Semi-Major Axis(m)": 6980739.136638005,
        "Time(s)": 190
    }
]